[
    {
        "Altitude(m)": 604221.2270754991,
        "Argument of Periapsis(deg)": 0.0,
        "Eccentricity": 0.0,
        "Inclination(deg)": 60.0,
        "Latitude(deg)": 14.117375579707415,
        "Longitude(deg)": 123.33416075867888,
        "Mean Anomaly(deg)": 16.363599999999984,
        "RAAN(deg)": 215.0,
        "Satellite Name": "Test1 947",
        "Satellite Number": 947,
        "Semi-Major Axis(m)": 6980739.136638005,
        "Time(s)": 0
    },
    {
        "Altitude(m)": 604235.3687490737,
        "Argument of Periapsis(deg)": 0.00010418945913296404,
        "Eccentricity": 0.0,
        "Inclination(deg)": 60.0,
        "Latitude(deg)": 14.651772193876814,
        "Longitude(deg)": 123.62260814660829,
        "Mean Anomaly(deg)": 16.983706145461838,
        "RAAN(deg)": 214.99957995086024,
        "Satellite Name": "Test1 947",
        "Satellite Number": 947,
        "Semi-Major Axis(m)": 6980739.136638005,
        "Time(s)": 10
    }
]